STARLINK-2018           
1 47640U 21012W   23053.08971332  .00019012  00000+0  12922-2 0  9993
2 47640  53.0551  21.7872 0001195 111.4815 248.6302 15.06389164111928
STARLINK-2019           
1 47641U 21012X   23052.83491070  .00021610  00000+0  14648-2 0  9996
2 47641  53.0522 287.9239 0001423 103.5926 256.5222 15.06409605113710
STARLINK-2020           
1 47642U 21012Y   23053.16209576  .00031293  00000+0  21095-2 0  9994
2 47642  53.0578  16.4581 0001056  94.7804 265.3306 15.06416206112002
STARLINK-2022           
1 47643U 21012Z   23052.84460227  .00008402  00000+0  58257-3 0  9998
2 47643  53.0547   2.8826 0001405 106.2706 253.8438 15.06380569112682
STARLINK-2026           
1 47644U 21012AA  23053.12289174  .00017588  00000+0  11974-2 0  9990
2 47644  53.0559  21.6379 0001700  90.1414 269.9770 15.06378794111934
STARLINK-2027           
1 47645U 21012AB  23053.07773739  .00006923  00000+0  48378-3 0  9990
2 47645  53.0535 352.0867 0001130 104.9069 255.2045 15.06354162112330
STARLINK-2028           
1 47646U 21012AC  23053.13077127  .00030542  00000+0  20604-2 0  9991
2 47646  53.0538 316.8441 0001152  84.8300 275.2821 15.06400428112834
STARLINK-2030           
1 47647U 21012AD  23053.39932236  .00020369  00000+0  13815-2 0  9993
2 47647  53.0546  20.3925 0001354 103.7154 256.3985 15.06423514111976
STARLINK-2031           
1 47648U 21012AE  23053.12473563  .00002200  00000+0  16656-3 0  9999
2 47648  53.0541   1.6222 0001543 113.2361 246.8790 15.06392411112217
STARLINK-2032           
1 47649U 21012AF  23053.12842703  .00031393  00000+0  21175-2 0  9992
2 47649  53.0545   1.6173 0001397 104.7786 255.3358 15.06392576112217
STARLINK-2033           
1 47650U 21012AG  23053.11366799  .00018396  00000+0  12510-2 0  9990
2 47650  53.0539   1.6843 0000900 111.2470 248.8615 15.06390701112208
STARLINK-2035           
1 47651U 21012AH  23053.08603863  .00015807  00000+0  10782-2 0  9996
2 47651  53.0539  21.8475 0001110  85.3797 274.7318 15.06381666111927
STARLINK-2036           
1 47652U 21012AJ  23053.17447983  .00024693  00000+0  16723-2 0  9990
2 47652  53.0557  21.4062 0001433  76.6046 283.5102 15.06367427111933
STARLINK-2037           
1 47653U 21012AK  23053.10260176  .00001686  00000+0  13227-3 0  9995
2 47653  53.0536   1.7342 0001389  76.7654 283.3490 15.06327061112208
STARLINK-2038           
1 47654U 21012AL  23053.17818059  .00023266  00000+0  15764-2 0  9997
2 47654  53.0539  21.3854 0001373  74.2658 285.8482 15.06382723111931
STARLINK-2039           
1 47655U 21012AM  23053.17082123  .00027922  00000+0  18866-2 0  9992
2 47655  53.0548  21.4262 0001686  95.6900 264.4281 15.06388228111936
STARLINK-2040           
1 47656U 21012AN  23053.12104878  .00021200  00000+0  14387-2 0  9997
2 47656  53.0548   1.6487 0001332  75.2243 284.8894 15.06377903112203
STARLINK-2041           
1 47657U 21012AP  23053.19290299  .00026418  00000+0  17871-2 0  9995
2 47657  53.0551  21.3253 0001355 112.2154 247.8979 15.06373542111944
STARLINK-2042           
1 47658U 21012AQ  23053.25190860  .00015215  00000+0  10384-2 0  9991
2 47658  53.0546  21.0649 0001637  94.2863 265.8313 15.06389048111955
STARLINK-2043           
1 47659U 21012AR  23053.01229221  .00010597  00000+0  72900-3 0  9991
2 47659  53.0529 262.1323 0001054  67.2943 292.8158 15.06411275113582
STARLINK-2044           
1 47660U 21012AS  23052.96538580  .00007121  00000+0  49627-3 0  9996
2 47660  53.0530 252.9636 0001410  92.3991 267.7159 15.06415924113710
STARLINK-2051           
1 47661U 21012AT  23053.15053714  .00022522  00000+0  15271-2 0  9999
2 47661  53.0546   1.5124 0000829  75.9819 284.1262 15.06375145112219
STARLINK-2052           
1 47662U 21012AU  23053.13113948  .00026465  00000+0  17912-2 0  9998
2 47662  53.0549   1.6041 0001767  72.0298 288.0884 15.06352091112211
STARLINK-2053           
1 47663U 21012AV  23053.06209481  .00012908  00000+0  88318-3 0  9995
2 47663  53.0520 282.2282 0000904  95.3222 264.7870 15.06428613113314
STARLINK-2054           
1 47664U 21012AW  23053.13210856  .00026697  00000+0  18053-2 0  9990
2 47664  53.0549   1.5951 0001541  77.7197 282.3965 15.06380416112211
STARLINK-2056           
1 47665U 21012AX  23053.11230859  .00025669  00000+0  17366-2 0  9998
2 47665  53.0533 356.7384 0001694  79.9231 280.1949 15.06384489112270
STARLINK-2057           
1 47666U 21012AY  23053.10865275  .00027342  00000+0  18484-2 0  9996
2 47666  53.0544 357.0616 0001422  76.6998 283.4150 15.06378389112270
STARLINK-2058           
1 47667U 21012AZ  23053.16343892  .00019907  00000+0  13521-2 0  9994
2 47667  53.0535  21.4509 0001312  96.2090 263.9049 15.06383891111939
STARLINK-2059           
1 47668U 21012BA  23053.13948500  .00028815  00000+0  19462-2 0  9997
2 47668  53.0556   1.5657 0001543  92.6883 267.4282 15.06385257112210
STARLINK-2060           
1 47669U 21012BB  23052.82929124  .00071933  00000+0  28817-2 0  9997
2 47669  53.0537 274.2209 0005242 211.9831 148.0848 15.24396158113902
STARLINK-2062           
1 47670U 21012BC  23053.15422384 -.00000937  00000+0 -44021-4 0  9997
2 47670  53.0554   1.5038 0001626 117.3865 242.7289 15.06393401112214
STARLINK-2064           
1 47671U 21012BD  23053.13581234  .00029772  00000+0  20111-2 0  9994
2 47671  53.0555   1.5814 0001499  83.1622 276.9538 15.06364232112213
STARLINK-2065           
1 47672U 21012BE  23052.84920911  .00008900  00000+0  61566-3 0  9991
2 47672  53.0550 352.8718 0001739  98.9212 261.1974 15.06396420112809
STARLINK-2066           
1 47673U 21012BF  23053.15792542  .00001611  00000+0  12711-3 0  9994
2 47673  53.0552   1.4856 0001326 118.1021 242.0102 15.06372399112212
STARLINK-2067           
1 47674U 21012BG  23053.10533140  .00010229  00000+0  70598-3 0  9999
2 47674  53.0545   1.7066 0001359  67.8779 292.2354 15.06325319112202
STARLINK-2078           
1 47675U 21012BH  23052.83353888 -.00008823  00000+0 -57432-3 0  9999
2 47675  53.0552   2.9387 0001475  81.9432 278.1724 15.06388471112686
STARLINK-2083           
1 47676U 21012BJ  23053.49240049 -.00000368  00000+0 -58356-5 0  9991
2 47676  53.0525 249.9750 0001086  90.6764 269.4349 15.06395069113809
STARLINK-2090           
1 47677U 21012BK  23053.08508480  .00013201  00000+0  90388-3 0  9990
2 47677  53.0542  21.8019 0001101  81.0355 279.0759 15.06381995111928
STARLINK-2095           
1 47679U 21012BM  23053.11448549  .00003867  00000+0  27819-3 0  9991
2 47679  53.0520  21.6808 0001186 101.0666 259.0456 15.06422685111936
STARLINK-2068           
1 47722U 21017A   23053.48920715 -.00014438  00000+0 -95346-3 0  9993
2 47722  53.0528 145.2327 0001161  93.0116 267.1005 15.06356062109825
STARLINK-2107           
1 47723U 21017B   23053.29800747  .00017163  00000+0  11675-2 0  9993
2 47723  53.0509  80.8490 0001498  96.1682 263.9477 15.06424420110705
STARLINK-2116           
1 47724U 21017C   23052.80404735 -.00007236  00000+0 -46745-3 0  9996
2 47724  53.0518  83.0734 0001019  83.2050 276.9055 15.06395407111245
STARLINK-2125           
1 47725U 21017D   23053.43529638 -.00002839  00000+0 -17189-3 0  9991
2 47725  53.0558 150.2354 0001533 107.3471 252.7686 15.06376982109742
STARLINK-2126           
1 47726U 21017E   23053.55322122  .00002115  00000+0  16103-3 0  9994
2 47726  53.0512 149.7071 0001149  70.7151 289.3962 15.06353023109769
STARLINK-2129           
1 47727U 21017F   23053.30533598 -.00000309  00000+0 -18742-5 0  9997
2 47727  53.0548  70.8222 0001815  86.4237 273.6960 15.06381509110845
STARLINK-2131           
1 47728U 21017G   23053.46108294  .00008895  00000+0  61582-3 0  9990
2 47728  53.0535 150.1132 0001725 107.6388 252.4789 15.06367191109750
STARLINK-2132           
1 47729U 21017H   23053.42375869  .00014224  00000+0  97263-3 0  9999
2 47729  53.0509  95.4929 0001399 111.1105 249.0033 15.06371987110520
STARLINK-2140           
1 47730U 21017J   23053.48365162  .00015990  00000+0  10909-2 0  9994
2 47730  53.0535 165.0272 0001527  93.2561 266.8602 15.06365488109543
STARLINK-2141           
1 47731U 21017K   23053.48962830  .00000069  00000+0  23538-4 0  9995
2 47731  53.0530 159.9882 0001389 102.2543 257.8601 15.06350291109618
STARLINK-2142           
1 47732U 21017L   23053.32978743  .00015442  00000+0  10538-2 0  9994
2 47732  53.0516  75.9455 0001630 101.9118 258.2054 15.06381742110770
STARLINK-2143           
1 47733U 21017M   23053.47765976  .00003741  00000+0  27010-3 0  9996
2 47733  53.0528 170.0443 0001260  89.3337 270.7797 15.06371645109478
STARLINK-2144           
1 47734U 21017N   23053.49700111  .00006176  00000+0  43380-3 0  9992
2 47734  53.0521 159.9576 0001388  78.8313 281.2832 15.06341969109612
STARLINK-2146           
1 47735U 21017P   23053.38046138 -.00000731  00000+0 -30203-4 0  9997
2 47735  53.0515  85.6422 0001203  96.7578 263.3548 15.06392876110642
STARLINK-2147           
1 47736U 21017Q   23053.46476170  .00006089  00000+0  42767-3 0  9997
2 47736  53.0524 150.0983 0001423 110.8054 249.3087 15.06368462109759
STARLINK-2148           
1 47737U 21017R   23053.14113268  .00000660  00000+0  29540-4 0  9993
2 47737  53.0550  21.1808 0001573  95.7089 264.4092 15.35743107111547
STARLINK-2149           
1 47738U 21017S   23053.43898697  .00005160  00000+0  36531-3 0  9999
2 47738  53.0551 150.4825 0000522 118.0195 242.0846 15.06367504109743
STARLINK-2150           
1 47739U 21017T   23053.06252265  .00000748  00000+0  69105-4 0  9995
2 47739  53.0514 176.9118 0001298  84.5885 275.5252 15.06407523109349
STARLINK-2152           
1 47740U 21017U   23053.44172489  .00015923  00000+0  10863-2 0  9994
2 47740  53.0521 160.2066 0001380  89.0994 271.0153 15.06369560109608
STARLINK-2154           
1 47741U 21017V   23053.45649392 -.00001572  00000+0 -86745-4 0  9999
2 47741  53.0532 160.1389 0001698 108.8310 251.2864 15.06360338109616
STARLINK-2156           
1 47742U 21017W   23053.46844189  .00002527  00000+0  18872-3 0  9996
2 47742  53.0523 150.0859 0001068 108.0242 252.0863 15.06346451109757
